{"fetched_at":"2026-03-29T16:36:15Z","count":15609,"tles":[{"name":"STARLINK-30478","line1":"1 57911U 23146W   26087.66535960  .00008030  00000+0  30854-3 0  9995","line2":"2 57911  43.0018 206.5718 0001711 270.9693  89.0963 15.26756865139960","category":"Starlink"}]}